{"type": "FeatureCollection", "features": [ {"type": "Feature", "properties": {"norad_id": 33867, "name": "IRIDIUM 33 DEB", "group": "iridium-33-debris", "lat": 41.07195826099005, "lon": 171.25927466981102, "alt_km": 393.63568068413497, "timestamp": "2025-12-04T07:39:36.516967+00:00", "meta": {"OBJECT_NAME": "IRIDIUM 33 DEB", "OBJECT_ID": "1997-051AL", "EPOCH": "2025-12-03T12:31:28.163136", "MEAN_MOTION": 15.53938073, "ECCENTRICITY": 0.00122374, "INCLINATION": 86.3625, "RA_OF_ASC_NODE": 354.8433, "ARG_OF_PERICENTER": 99.3235, "MEAN_ANOMALY": 260.9411, "EPHEMERIS_TYPE": 0, "CLASSIFICATION_TYPE": "U", "NORAD_CAT_ID": 33867, "ELEMENT_SET_NO": 999, "REV_AT_EPOCH": 89367, "BSTAR": 0.0078630692, "MEAN_MOTION_DOT": 0.00542495, "MEAN_MOTION_DDOT": 0}, "tle": {"line1": "1 33867U 97051AL  25337.52185374  .00542495  00000+0  78631-2 0  9999", "line2": "2 33867  86.3625 354.8433 0012237  99.3235 260.9411 15.53938073893675"}}, "geometry": {"type": "Point", "coordinates": [171.25927466981102, 41.07195826099005]}}, {"type": "Feature", "properties": {"norad_id": 33870, "name": "IRIDIUM 33 DEB", "group": "iridium-33-debris", "lat": 84.23680656864626, "lon": 100.76974792612745, "alt_km": 739.461147426201, "timestamp": "2025-12-04T07:39:36.516977+00:00", "meta": {"OBJECT_NAME": "IRIDIUM 33 DEB", "OBJECT_ID": "1997-051AP", "EPOCH": "2025-12-03T16:55:20.809344", "MEAN_MOTION": 14.45765696, "ECCENTRICITY": 0.00205196, "INCLINATION": 86.3759, "RA_OF_ASC_NODE": 62.133, "ARG_OF_PERICENTER": 208.1182, "MEAN_ANOMALY": 283.557, "EPHEMERIS_TYPE": 0, "CLASSIFICATION_TYPE": "U", "NORAD_CAT_ID": 33870, "ELEMENT_SET_NO": 999, "REV_AT_EPOCH": 88006, "BSTAR": 0.0013399091, "MEAN_MOTION_DOT": 4.78e-05, "MEAN_MOTION_DDOT": 0}, "tle": {"line1": "1 33870U 97051AP  25337.70510196  .00004780  00000+0  13399-2 0  9997", "line2": "2 33870  86.3759  62.1330 0020519 208.1182 283.5570 14.45765696880060"}}, "geometry": {"type": "Point", "coordinates": [100.76974792612745, 84.23680656864626]}}, {"type": "Feature", "properties": {"norad_id": 33881, "name": "IRIDIUM 33 DEB", "group": "iridium-33-debris", "lat": -7.777213439341193, "lon": 109.90519482301897, "alt_km": 746.7695269674587, "timestamp": "2025-12-04T07:39:36.516987+00:00", "meta": {"OBJECT_NAME": "IRIDIUM 33 DEB", "OBJECT_ID": "1997-051BA", "EPOCH": "2025-12-03T08:52:49.327968", "MEAN_MOTION": 14.56290168, "ECCENTRICITY": 0.0061157, "INCLINATION": 86.3865, "RA_OF_ASC_NODE": 110.812, "ARG_OF_PERICENTER": 205.0667, "MEAN_ANOMALY": 213.9917, "EPHEMERIS_TYPE": 0, "CLASSIFICATION_TYPE": "U", "NORAD_CAT_ID": 33881, "ELEMENT_SET_NO": 999, "REV_AT_EPOCH": 87364, "BSTAR": 0.002603, "MEAN_MOTION_DOT": 0.00011848, "MEAN_MOTION_DDOT": 0}, "tle": {"line1": "1 33881U 97051BA  25337.37001537  .00011848  00000+0  26030-2 0  9995", "line2": "2 33881  86.3865 110.8120 0061157 205.0667 213.9917 14.56290168873642"}}, "geometry": {"type": "Point", "coordinates": [109.90519482301897, -7.777213439341193]}}, {"type": "Feature", "properties": {"norad_id": 33884, "name": "IRIDIUM 33 DEB", "group": "iridium-33-debris", "lat": 27.40091781768192, "lon": 15.505319289552125, "alt_km": 630.9847314039243, "timestamp": "2025-12-04T07:39:36.516996+00:00", "meta": {"OBJECT_NAME": "IRIDIUM 33 DEB", "OBJECT_ID": "1997-051BD", "EPOCH": "2025-12-03T02:24:03.793824", "MEAN_MOTION": 14.77130142, "ECCENTRICITY": 0.00106894, "INCLINATION": 86.3701, "RA_OF_ASC_NODE": 14.1694, "ARG_OF_PERICENTER": 359.2537, "MEAN_ANOMALY": 29.5165, "EPHEMERIS_TYPE": 0, "CLASSIFICATION_TYPE": "U", "NORAD_CAT_ID": 33884, "ELEMENT_SET_NO": 999, "REV_AT_EPOCH": 88705, "BSTAR": 0.0017255958, "MEAN_MOTION_DOT": 0.0001224, "MEAN_MOTION_DDOT": 0}, "tle": {"line1": "1 33884U 97051BD  25337.10004391  .00012240  00000+0  17256-2 0  9997", "line2": "2 33884  86.3701  14.1694 0010689 359.2537  29.5165 14.77130142887052"}}, "geometry": {"type": "Point", "coordinates": [15.505319289552125, 27.40091781768192]}}, {"type": "Feature", "properties": {"norad_id": 33886, "name": "IRIDIUM 33 DEB", "group": "iridium-33-debris", "lat": 57.67357089005455, "lon": -114.96370576061092, "alt_km": 773.8015886113171, "timestamp": "2025-12-04T07:39:36.517006+00:00", "meta": {"OBJECT_NAME": "IRIDIUM 33 DEB", "OBJECT_ID": "1997-051BF", "EPOCH": "2025-12-03T18:15:52.922016", "MEAN_MOTION": 14.36033688, "ECCENTRICITY": 0.00120654, "INCLINATION": 86.3832, "RA_OF_ASC_NODE": 71.0074, "ARG_OF_PERICENTER": 276.1979, "MEAN_ANOMALY": 202.3327, "EPHEMERIS_TYPE": 0, "CLASSIFICATION_TYPE": "U", "NORAD_CAT_ID": 33886, "ELEMENT_SET_NO": 999, "REV_AT_EPOCH": 87923, "BSTAR": 0.00032171067, "MEAN_MOTION_DOT": 9.55e-06, "MEAN_MOTION_DDOT": 0}, "tle": {"line1": "1 33886U 97051BF  25337.76102919  .00000955  00000+0  32171-3 0  9990", "line2": "2 33886  86.3832  71.0074 0012065 276.1979 202.3327 14.36033688879234"}}, "geometry": {"type": "Point", "coordinates": [-114.96370576061092, 57.67357089005455]}}, {"type": "Feature", "properties": {"norad_id": 33887, "name": "IRIDIUM 33 DEB", "group": "iridium-33-debris", "lat": 22.8174201344088, "lon": 8.578975945104622, "alt_km": 768.635026227741, "timestamp": "2025-12-04T07:39:36.517016+00:00", "meta": {"OBJECT_NAME": "IRIDIUM 33 DEB", "OBJECT_ID": "1997-051BG", "EPOCH": "2025-12-03T13:45:17.631072", "MEAN_MOTION": 14.37207782, "ECCENTRICITY": 0.00040353, "INCLINATION": 86.3051, "RA_OF_ASC_NODE": 7.3424, "ARG_OF_PERICENTER": 270.6058, "MEAN_ANOMALY": 214.7345, "EPHEMERIS_TYPE": 0, "CLASSIFICATION_TYPE": "U", "NORAD_CAT_ID": 33887, "ELEMENT_SET_NO": 999, "REV_AT_EPOCH": 88033, "BSTAR": 0.00021498775, "MEAN_MOTION_DOT": 6.59e-06, "MEAN_MOTION_DDOT": 0}, "tle": {"line1": "1 33887U 97051BG  25337.57312073  .00000659  00000+0  21499-3 0  9996", "line2": "2 33887  86.3051   7.3424 0004035 270.6058 214.7345 14.37207782880333"}}, "geometry": {"type": "Point", "coordinates": [8.578975945104622, 22.8174201344088]}}, {"type": "Feature", "properties": {"norad_id": 33953, "name": "IRIDIUM 33 DEB", "group": "iridium-33-debris", "lat": 51.874328518851605, "lon": 62.05344481768429, "alt_km": 700.9206372794497, "timestamp": "2025-12-04T07:39:36.517026+00:00", "meta": {"OBJECT_NAME": "IRIDIUM 33 DEB", "OBJECT_ID": "1997-051BN", "EPOCH": "2025-12-03T05:09:00.715968", "MEAN_MOTION": 14.55157442, "ECCENTRICITY": 0.0018449, "INCLINATION": 86.3853, "RA_OF_ASC_NODE": 57.9126, "ARG_OF_PERICENTER": 131.9522, "MEAN_ANOMALY": 257.615, "EPHEMERIS_TYPE": 0, "CLASSIFICATION_TYPE": "U", "NORAD_CAT_ID": 33953, "ELEMENT_SET_NO": 999, "REV_AT_EPOCH": 88165, "BSTAR": 0.0017324, "MEAN_MOTION_DOT": 7.523e-05, "MEAN_MOTION_DDOT": 0}, "tle": {"line1": "1 33953U 97051BN  25337.21459162  .00007523  00000+0  17324-2 0  9990", "line2": "2 33953  86.3853  57.9126 0018449 131.9522 257.6150 14.55157442881659"}}, "geometry": {"type": "Point", "coordinates": [62.05344481768429, 51.874328518851605]}}, {"type": "Feature", "properties": {"norad_id": 33960, "name": "IRIDIUM 33 DEB", "group": "iridium-33-debris", "lat": 40.72794808897965, "lon": -63.283674346326904, "alt_km": 607.9501177902894, "timestamp": "2025-12-04T07:39:36.517036+00:00", "meta": {"OBJECT_NAME": "IRIDIUM 33 DEB", "OBJECT_ID": "1997-051BV", "EPOCH": "2025-12-03T22:02:56.046336", "MEAN_MOTION": 14.84433668, "ECCENTRICITY": 0.00070383, "INCLINATION": 86.253, "RA_OF_ASC_NODE": 293.6703, "ARG_OF_PERICENTER": 74.2098, "MEAN_ANOMALY": 348.0492, "EPHEMERIS_TYPE": 0, "CLASSIFICATION_TYPE": "U", "NORAD_CAT_ID": 33960, "ELEMENT_SET_NO": 999, "REV_AT_EPOCH": 88736, "BSTAR": 0.0061170457, "MEAN_MOTION_DOT": 0.00051818, "MEAN_MOTION_DDOT": 0}, "tle": {"line1": "1 33960U 97051BV  25337.91870424  .00051818  00000+0  61170-2 0  9997", "line2": "2 33960  86.2530 293.6703 0007038  74.2098 348.0492 14.84433668887364"}}, "geometry": {"type": "Point", "coordinates": [-63.283674346326904, 40.72794808897965]}}, {"type": "Feature", "properties": {"norad_id": 33966, "name": "IRIDIUM 33 DEB", "group": "iridium-33-debris", "lat": -9.421263016620536, "lon": 49.04078074400764, "alt_km": 734.4292002336642, "timestamp": "2025-12-04T07:39:36.517056+00:00", "meta": {"OBJECT_NAME": "IRIDIUM 33 DEB", "OBJECT_ID": "1997-051CB", "EPOCH": "2025-12-03T17:20:32.441280", "MEAN_MOTION": 14.49530471, "ECCENTRICITY": 0.00064145, "INCLINATION": 86.3932, "RA_OF_ASC_NODE": 49.8963, "ARG_OF_PERICENTER": 220.7133, "MEAN_ANOMALY": 258.7908, "EPHEMERIS_TYPE": 0, "CLASSIFICATION_TYPE": "U", "NORAD_CAT_ID": 33966, "ELEMENT_SET_NO": 999, "REV_AT_EPOCH": 88311, "BSTAR": 0.00091882532, "MEAN_MOTION_DOT": 3.542e-05, "MEAN_MOTION_DDOT": 0}, "tle": {"line1": "1 33966U 97051CB  25337.72259770  .00003542  00000+0  91883-3 0  9993", "line2": "2 33966  86.3932  49.8963 0006414 220.7133 258.7908 14.49530471883110"}}, "geometry": {"type": "Point", "coordinates": [49.04078074400764, -9.421263016620536]}}, {"type": "Feature", "properties": {"norad_id": 34071, "name": "IRIDIUM 33 DEB", "group": "iridium-33-debris", "lat": 60.598872611141445, "lon": 27.998829103037597, "alt_km": 719.3975037280034, "timestamp": "2025-12-04T07:39:36.517070+00:00", "meta": {"OBJECT_NAME": "IRIDIUM 33 DEB", "OBJECT_ID": "1997-051CE", "EPOCH": "2025-12-03T14:48:40.660128", "MEAN_MOTION": 14.49397126, "ECCENTRICITY": 0.00094837, "INCLINATION": 86.3467, "RA_OF_ASC_NODE": 21.7934, "ARG_OF_PERICENTER": 132.2997, "MEAN_ANOMALY": 227.9013, "EPHEMERIS_TYPE": 0, "CLASSIFICATION_TYPE": "U", "NORAD_CAT_ID": 34071, "ELEMENT_SET_NO": 999, "REV_AT_EPOCH": 88202, "BSTAR": 0.0009210058, "MEAN_MOTION_DOT": 3.542e-05, "MEAN_MOTION_DDOT": 0}, "tle": {"line1": "1 34071U 97051CE  25337.61713727  .00003542  00000+0  92101-3 0  9990", "line2": "2 34071  86.3467  21.7934 0009483 132.2997 227.9013 14.49397126882024"}}, "geometry": {"type": "Point", "coordinates": [27.998829103037597, 60.598872611141445]}}]}